[{"OBJECT_NAME":"STARLINK-5858","OBJECT_ID":"2023-094AY","EPOCH":"2026-03-09T03:55:29.964864","MEAN_MOTION":15.02532713,"ECCENTRICITY":0.00012785,"INCLINATION":43.0035,"RA_OF_ASC_NODE":19.9351,"ARG_OF_PERICENTER":268.4358,"MEAN_ANOMALY":91.6338,"EPHEMERIS_TYPE":0,"CLASSIFICATION_TYPE":"U","NORAD_CAT_ID":57264,"ELEMENT_SET_NO":999,"REV_AT_EPOCH":14719,"BSTAR":6.23424e-7,"MEAN_MOTION_DOT":-1.95e-6,"MEAN_MOTION_DDOT":0},{"OBJECT_NAME":"FENGYUN 1C DEB","OBJECT_ID":"1999-025CKU","EPOCH":"2026-03-07T04:09:20.285280","MEAN_MOTION":14.64130912,"ECCENTRICITY":0.01755094,"INCLINATION":99.0838,"RA_OF_ASC_NODE":38.0129,"ARG_OF_PERICENTER":68.0231,"MEAN_ANOMALY":310.4177,"EPHEMERIS_TYPE":0,"CLASSIFICATION_TYPE":"U","NORAD_CAT_ID":31893,"ELEMENT_SET_NO":999,"REV_AT_EPOCH":99640,"BSTAR":0.00044028638,"MEAN_MOTION_DOT":2.831e-5,"MEAN_MOTION_DDOT":0}]
